{
  "type": "FeatureCollection",
  "features": [
    {
      "type": "Feature",
      "properties": {
        "norad_id": 35435,
        "name": "COSMOS 2251 DEB",
        "group": "cosmos-2251-debris",
        "lat": -39.9505813094611,
        "lon": 67.68706292648275,
        "alt_km": 643.0662125359368,
        "timestamp": "2025-12-24T03:53:30.043301+00:00",
        "meta_object_name": "COSMOS 2251 DEB",
        "meta_object_id": "1993-036AKD",
        "meta_epoch": "2025-12-21T23:02:18.053952",
        "meta_mean_motion": 14.78725447,
        "meta_eccentricity": 0.0007022,
        "meta_inclination": 74.0111,
        "meta_ra_of_asc_node": 85.9177,
        "meta_arg_of_pericenter": 183.0187,
        "meta_mean_anomaly": 296.3821,
        "meta_ephemeris_type": 0,
        "meta_classification_type": "U",
        "meta_norad_cat_id": 35435,
        "meta_element_set_no": 999,
        "meta_rev_at_epoch": 87675,
        "meta_bstar": 0.0022341039,
        "meta_mean_motion_dot": 0.00016414,
        "meta_mean_motion_ddot": 0,
        "tle_line1": "1 35435U 93036AKD 25355.95993118  .00016414  00000+0  22341-2 0  9995",
        "tle_line2": "2 35435  74.0111  85.9177 0007022 183.0187 296.3821 14.78725447876755"
      },
      "geometry": {
        "type": "Point",
        "coordinates": [
          67.68706292648275,
          -39.9505813094611
        ]
      }
    },
    {
      "type": "Feature",
      "properties": {
        "norad_id": 35439,
        "name": "COSMOS 2251 DEB",
        "group": "cosmos-2251-debris",
        "lat": -34.56986021117357,
        "lon": 103.77983050975718,
        "alt_km": 790.7650700253662,
        "timestamp": "2025-12-24T03:53:30.043312+00:00",
        "meta_object_name": "COSMOS 2251 DEB",
        "meta_object_id": "1993-036AKH",
        "meta_epoch": "2025-12-23T01:03:41.280192",
        "meta_mean_motion": 13.9285581,
        "meta_eccentricity": 0.02428241,
        "meta_inclination": 74.0195,
        "meta_ra_of_asc_node": 117.083,
        "meta_arg_of_pericenter": 284.1415,
        "meta_mean_anomaly": 194.5054,
        "meta_ephemeris_type": 0,
        "meta_classification_type": "U",
        "meta_norad_cat_id": 35439,
        "meta_element_set_no": 999,
        "meta_rev_at_epoch": 84104,
        "meta_bstar": 0.0017241175,
        "meta_mean_motion_dot": 2.822e-05,
        "meta_mean_motion_ddot": 0,
        "tle_line1": "1 35439U 93036AKH 25357.04422778  .00002822  00000+0  17241-2 0  9991",
        "tle_line2": "2 35439  74.0195 117.0830 0242824 284.1415 194.5054 13.92855810841046"
      },
      "geometry": {
        "type": "Point",
        "coordinates": [
          103.77983050975718,
          -34.56986021117357
        ]
      }
    },
    {
      "type": "Feature",
      "properties": {
        "norad_id": 35440,
        "name": "COSMOS 2251 DEB",
        "group": "cosmos-2251-debris",
        "lat": -73.24639032443443,
        "lon": 113.2574437154939,
        "alt_km": 639.0277316724996,
        "timestamp": "2025-12-24T03:53:30.043322+00:00",
        "meta_object_name": "COSMOS 2251 DEB",
        "meta_object_id": "1993-036AKJ",
        "meta_epoch": "2025-12-22T19:34:52.667040",
        "meta_mean_motion": 14.68858524,
        "meta_eccentricity": 0.00697181,
        "meta_inclination": 74.0136,
        "meta_ra_of_asc_node": 188.1002,
        "meta_arg_of_pericenter": 326.674,
        "meta_mean_anomaly": 33.0049,
        "meta_ephemeris_type": 0,
        "meta_classification_type": "U",
        "meta_norad_cat_id": 35440,
        "meta_element_set_no": 999,
        "meta_rev_at_epoch": 68913,
        "meta_bstar": 0.00037964995,
        "meta_mean_motion_dot": 2.268e-05,
        "meta_mean_motion_ddot": 0,
        "tle_line1": "1 35440U 93036AKJ 25356.81588735  .00002268  00000+0  37965-3 0  9993",
        "tle_line2": "2 35440  74.0136 188.1002 0069718 326.6740  33.0049 14.68858524689135"
      },
      "geometry": {
        "type": "Point",
        "coordinates": [
          113.2574437154939,
          -73.24639032443443
        ]
      }
    },
    {
      "type": "Feature",
      "properties": {
        "norad_id": 35441,
        "name": "COSMOS 2251 DEB",
        "group": "cosmos-2251-debris",
        "lat": -23.166629336493592,
        "lon": -90.64678547228563,
        "alt_km": 714.2318401580424,
        "timestamp": "2025-12-24T03:53:30.043347+00:00",
        "meta_object_name": "COSMOS 2251 DEB",
        "meta_object_id": "1993-036AKK",
        "meta_epoch": "2025-12-23T01:44:22.571808",
        "meta_mean_motion": 14.62737504,
        "meta_eccentricity": 0.003608,
        "meta_inclination": 74.135,
        "meta_ra_of_asc_node": 278.4179,
        "meta_arg_of_pericenter": 171.2985,
        "meta_mean_anomaly": 188.8816,
        "meta_ephemeris_type": 0,
        "meta_classification_type": "U",
        "meta_norad_cat_id": 35441,
        "meta_element_set_no": 999,
        "meta_rev_at_epoch": 87581,
        "meta_bstar": 0.001573097,
        "meta_mean_motion_dot": 8.072e-05,
        "meta_mean_motion_ddot": 0,
        "tle_line1": "1 35441U 93036AKK 25357.07248347  .00008072  00000+0  15731-2 0  9990",
        "tle_line2": "2 35441  74.1350 278.4179 0036080 171.2985 188.8816 14.62737504875815"
      },
      "geometry": {
        "type": "Point",
        "coordinates": [
          -90.64678547228563,
          -23.166629336493592
        ]
      }
    },
    {
      "type": "Feature",
      "properties": {
        "norad_id": 35442,
        "name": "COSMOS 2251 DEB",
        "group": "cosmos-2251-debris",
        "lat": 38.519317095136365,
        "lon": 89.64212743948107,
        "alt_km": 608.2827313361013,
        "timestamp": "2025-12-24T03:53:30.043360+00:00",
        "meta_object_name": "COSMOS 2251 DEB",
        "meta_object_id": "1993-036AKL",
        "meta_epoch": "2025-12-21T22:20:48.255648",
        "meta_mean_motion": 14.84734411,
        "meta_eccentricity": 0.00038381,
        "meta_inclination": 74.0273,
        "meta_ra_of_asc_node": 80.8914,
        "meta_arg_of_pericenter": 50.7376,
        "meta_mean_anomaly": 309.4143,
        "meta_ephemeris_type": 0,
        "meta_classification_type": "U",
        "meta_norad_cat_id": 35442,
        "meta_element_set_no": 999,
        "meta_rev_at_epoch": 87489,
        "meta_bstar": 0.0021156,
        "meta_mean_motion_dot": 0.00017947,
        "meta_mean_motion_ddot": 0,
        "tle_line1": "1 35442U 93036AKL 25355.93111407  .00017947  00000+0  21156-2 0  9999",
        "tle_line2": "2 35442  74.0273  80.8914 0003838  50.7376 309.4143 14.84734411874890"
      },
      "geometry": {
        "type": "Point",
        "coordinates": [
          89.64212743948107,
          38.519317095136365
        ]
      }
    },
    {
      "type": "Feature",
      "properties": {
        "norad_id": 35443,
        "name": "COSMOS 2251 DEB",
        "group": "cosmos-2251-debris",
        "lat": -46.205636002979944,
        "lon": 145.83711059121381,
        "alt_km": 619.9871387025305,
        "timestamp": "2025-12-24T03:53:30.043371+00:00",
        "meta_object_name": "COSMOS 2251 DEB",
        "meta_object_id": "1993-036AKM",
        "meta_epoch": "2025-12-22T07:35:27.878496",
        "meta_mean_motion": 14.97448955,
        "meta_eccentricity": 0.00729664,
        "meta_inclination": 73.9898,
        "meta_ra_of_asc_node": 312.1571,
        "meta_arg_of_pericenter": 91.4914,
        "meta_mean_anomaly": 269.4631,
        "meta_ephemeris_type": 0,
        "meta_classification_type": "U",
        "meta_norad_cat_id": 35443,
        "meta_element_set_no": 999,
        "meta_rev_at_epoch": 87021,
        "meta_bstar": 0.0042887537,
        "meta_mean_motion_dot": 0.00053082,
        "meta_mean_motion_ddot": 0,
        "tle_line1": "1 35443U 93036AKM 25356.31629489  .00053082  00000+0  42888-2 0  9992",
        "tle_line2": "2 35443  73.9898 312.1571 0072966  91.4914 269.4631 14.97448955870218"
      },
      "geometry": {
        "type": "Point",
        "coordinates": [
          145.83711059121381,
          -46.205636002979944
        ]
      }
    },
    {
      "type": "Feature",
      "properties": {
        "norad_id": 35445,
        "name": "COSMOS 2251 DEB",
        "group": "cosmos-2251-debris",
        "lat": 32.20682886193556,
        "lon": 87.8440182698781,
        "alt_km": 774.624809306617,
        "timestamp": "2025-12-24T03:53:30.043381+00:00",
        "meta_object_name": "COSMOS 2251 DEB",
        "meta_object_id": "1993-036AKP",
        "meta_epoch": "2025-12-20T02:09:32.474016",
        "meta_mean_motion": 14.59298517,
        "meta_eccentricity": 0.0143911,
        "meta_inclination": 74.0379,
        "meta_ra_of_asc_node": 285.9917,
        "meta_arg_of_pericenter": 11.2111,
        "meta_mean_anomaly": 349.2201,
        "meta_ephemeris_type": 0,
        "meta_classification_type": "U",
        "meta_norad_cat_id": 35445,
        "meta_element_set_no": 999,
        "meta_rev_at_epoch": 87436,
        "meta_bstar": 0.001392614,
        "meta_mean_motion_dot": 7.582e-05,
        "meta_mean_motion_ddot": 0,
        "tle_line1": "1 35445U 93036AKP 25354.08995919  .00007582  00000+0  13926-2 0  9995",
        "tle_line2": "2 35445  74.0379 285.9917 0143911  11.2111 349.2201 14.59298517874360"
      },
      "geometry": {
        "type": "Point",
        "coordinates": [
          87.8440182698781,
          32.20682886193556
        ]
      }
    }
  ]
}